2024-085C               
1 59679U 24085C   24153.17570787  .00009086  00000+0  40166-3 0  9994
2 59679  97.4046 227.6192 0015145 175.7735 184.3632 15.21824787  3801
2024-085D               
1 59680U 24085D   24153.17698809  .00010998  00000+0  48540-3 0  9990
2 59680  97.4046 227.6177 0014804 173.7841 186.3582 15.21832301  3800
2024-085E               
1 59681U 24085E   24153.17135560  .00012463  00000+0  36092-3 0  9999
2 59681  97.3735 228.0006 0055023 264.1030  95.3939 15.34185160  3830
STARLINK-32108          
1 59682U 24086A   24153.25001157 -.01729047  00000+0 -29070-1 0  9996
2 59682  42.9996 143.2079 0001059 254.5865  10.1406 15.54112923  4792
STARLINK-32080          
1 59683U 24086B   24153.25001157 -.00778245  00000+0 -14150-1 0  9993
2 59683  43.0000 143.4231 0001714 292.9732 244.1106 15.51098979  4786
STARLINK-32091          
1 59684U 24086C   24152.91667824 -.00029790  00000+0 -70837-3 0  9995
2 59684  43.0004 147.1673 0001012 273.3793 185.4967 15.40712464  4796
STARLINK-32085          
1 59685U 24086D   24153.25001157 -.02218503  00000+0 -54454-1 0  9994
2 59685  43.0001 144.8337 0001285 271.0474  50.6681 15.43187121  4816
STARLINK-32100          
1 59686U 24086E   24153.25001157  .00165667  00000+0  11639-2 0  9992
2 59686  42.9990 142.3687 0000520 120.9295 122.4826 15.72883229  4843
STARLINK-32089          
1 59687U 24086F   24152.00001157  .00004855  00000+0  12344-3 0  9991
2 59687  43.0005 152.2985 0001436 229.9919 240.7340 15.40690167  4661
STARLINK-32103          
1 59688U 24086G   24153.16717118  .00008870  00000+0  21926-3 0  9998
2 59688  42.9989 145.8416 0000981 236.0292 124.0472 15.40712056  4757
STARLINK-32105          
1 59689U 24086H   24152.91667824  .00034283  00000+0  82505-3 0  9996
2 59689  43.0004 147.0765 0001066 272.5925 223.6052 15.40671754  4717
STARLINK-32106          
1 59690U 24086J   24153.16492024  .00004284  00000+0  10972-3 0  9991
2 59690  42.9993 145.8284 0000263 274.4170  85.6656 15.40708249  4757
STARLINK-32090          
1 59691U 24086K   24152.91667824  .00037838  00000+0  90928-3 0  9996
2 59691  43.0001 146.8656 0001460 258.8983 324.3741 15.40676486  4612
STARLINK-32095          
1 59692U 24086L   24153.11552118  .00094161  00000+0  10262-2 0  9993
2 59692  42.9994 144.5663 0002028 169.7740 190.3166 15.62377593  4766
STARLINK-32088          
1 59693U 24086M   24153.09561886  .00028576  00000+0  68830-3 0  9995
2 59693  42.9973 146.1669 0000282 212.3625 147.7214 15.40721049  4748
STARLINK-32107          
1 59694U 24086N   24153.05680779 -.00122169  00000+0 -21264-2 0  9999
2 59694  43.0007 145.8654 0000861 248.0449 112.0320 15.50353104  4581
STARLINK-32104          
1 59695U 24086P   24152.91667824  .00065063  00000+0  15517-2 0  9991
2 59695  43.0004 147.1069 0001687 290.6535 193.0037 15.40696696  4714
STARLINK-32094          
1 59696U 24086Q   24152.91667824  .00051607  00000+0  12361-2 0  9995
2 59696  43.0007 146.5271 0001166 272.4966  87.6305 15.40656898  4518
STARLINK-32099          
1 59697U 24086R   24153.01959348  .00016362  00000+0  39820-3 0  9992
2 59697  42.9999 146.4504 0000776 183.9571 176.1280 15.40693644  4739
STARLINK-32096          
1 59698U 24086S   24151.25215618 -.00330959  00000+0 -64330-2 0  9998
2 59698  42.9996 156.4053 0002847 252.4078 107.6470 15.48019781  4543
STARLINK-32102          
1 59699U 24086T   24153.25001157 -.00007989  00000+0 -18414-3 0  9999
2 59699  42.9997 145.0362 0000694  33.0336 203.8897 15.40710240  4610
STARLINK-32092          
1 59700U 24086U   24152.91667824 -.02140261  00000+0 -52385-1 0  9999
2 59700  43.0000 146.6906 0001458 259.1713  35.2367 15.43722143  4796
STARLINK-32093          
1 59701U 24086V   24153.12468640 -.00411418  00000+0 -99070-2 0  9995
2 59701  43.0003 145.5167 0001305 285.2070  74.8642 15.42099013  4757
STARLINK-32087          
1 59702U 24086W   24153.25001157 -.00063192  00000+0 -15163-2 0  9999
2 59702  42.9998 144.9162 0001556 337.3064 309.4085 15.40733884  4619
STARLINK-32086          
1 59703U 24086X   24153.15596539  .00006893  00000+0  17200-3 0  9990
2 59703  43.0010 145.7583 0002705 298.2540  61.8044 15.40723978  4699
STARLINK-32098          
1 59704U 24086Y   24153.25001157 -.02219211  00000+0 -53778-1 0  9991
2 59704  43.0000 144.7419 0001425 268.4687  89.8077 15.43562578  4714
SKYNET-1 01             
1 59705U 24087A   24152.56093189  .00000058  00000+0  00000+0 0  9993
2 59705  53.1420 201.3430 0004909 221.3128 353.3015  2.00592205   338
CZ-3B R/B               
1 59707U 24087C   24153.05184459  .00032851  14046-6  10909-2 0  9991
2 59707  53.2021 191.2727 6091170 233.0506  54.4619  3.97735210   999
STARLINK-11107 [DTC]    
1 59708U 24088A   24152.75297789  .00009922  00000+0  46954-4 0  9992
2 59708  53.1637 276.9182 0001002 115.3477 244.7651 15.83831783  4620
STARLINK-11088 [DTC]    
1 59709U 24088B   24152.91667824  .00001011  00000+0  10164-4 0  9997
2 59709  53.1635 276.2940 0000719 102.1329  15.6406 15.76740771  4573
STARLINK-11092 [DTC]    
1 59710U 24088C   24153.00001157 -.00133830  00000+0 -82374-3 0  9999
2 59710  53.1630 275.8530 0001244 100.7660 141.9960 15.76806166  4564
STARLINK-11082 [DTC]    
1 59711U 24088D   24152.91667824  .00084563  00000+0  51685-3 0  9995
2 59711  53.1632 276.2450 0000890  97.9713  43.2227 15.76671308  4574
STARLINK-11108 [DTC]    
1 59712U 24088E   24152.91667824  .00053370  00000+0  32900-3 0  9997
2 59712  53.1628 276.2200 0002326 353.6534 159.2984 15.76660561  4579
STARLINK-11100 [DTC]    
1 59713U 24088F   24152.91667824 -.00121499  00000+0 -74673-3 0  9991
2 59713  53.1628 276.1961 0001362  66.6872  97.9025 15.76795593  4576
STARLINK-11094 [DTC]    
1 59714U 24088G   24153.00001157 -.00105205  00000+0 -64471-3 0  9996
2 59714  53.1626 275.7553 0001487  89.8452 199.7683 15.76798812  4530
STARLINK-11101 [DTC]    
1 59715U 24088H   24152.91667824  .00030323  00000+0  18891-3 0  9996
2 59715  53.1619 276.1222 0000868 133.1669  66.7466 15.76692079  4570
STARLINK-11099 [DTC]    
1 59716U 24088J   24153.07368731  .00008428  00000+0  55305-4 0  9993
2 59716  53.1630 275.3615 0001465 274.2447  85.8406 15.76785346  4583
STARLINK-11084 [DTC]    
1 59717U 24088K   24152.91667824 -.00040517  00000+0 -24466-3 0  9991
2 59717  53.1618 276.0975 0000920  83.9928 127.6844 15.76735952  4579
STARLINK-11103 [DTC]    
1 59718U 24088L   24153.25001157  .00063746  00000+0  39133-3 0  9995
2 59718  53.1615 274.4109 0000738  79.8787 236.7679 15.76684357  4606
STARLINK-11096 [DTC]    
1 59719U 24088M   24152.91667824 -.00041590  00000+0 -25139-3 0  9993
2 59719  53.1611 276.0487 0001267 149.1730  86.0828 15.76724841  4578
STARLINK-11095 [DTC]    
1 59720U 24088N   24153.06336578 -.00016902  00000+0 -99610-4 0  9996
2 59720  53.1621 275.2901 0000978  71.4836 288.6291 15.76698850  4579
STARLINK-31834          
1 59721U 24088P   24153.25001157 -.02152811  00000+0 -44152-1 0  9990
2 59721  53.1596 275.7881 0000869  64.0273 283.1830 15.49043092  4442
STARLINK-31843          
1 59722U 24088Q   24153.25001157 -.00022040  00000+0 -38903-3 0  9998
2 59722  53.1580 275.8064 0001144 143.1139 194.4265 15.49331158  4446
STARLINK-31766          
1 59723U 24088R   24153.25001157 -.02144610  00000+0 -45394-1 0  9999
2 59723  53.1597 275.8259 0000441  88.9010 238.7234 15.48140632  4446
STARLINK-31836          
1 59724U 24088S   24153.25001157 -.02137950  00000+0 -49446-1 0  9991
2 59724  53.1590 275.8482 0000803  87.4211 228.5559 15.45589418  4530
STARLINK-31820          
1 59725U 24088T   24152.91667824 -.00009124  00000+0 -15613-3 0  9993
2 59725  53.1574 277.4330 0000795  93.8475 169.0908 15.49319279  4421
STARLINK-31642          
1 59726U 24088U   24152.91667824 -.00011111  00000+0 -19192-3 0  9999
2 59726  53.1571 277.4411 0001292  94.5498 164.5567 15.49320057  4422
STARLINK-31827          
1 59727U 24088V   24152.91667824 -.00004118  00000+0 -65998-4 0  9995
2 59727  53.1571 277.4272 0000932 110.1236 154.7306 15.49316883  4630
SHIYAN 23 (SY-23)       
1 59728U 24089A   24152.90738454  .00001276  00000+0  13694-3 0  9999
2 59728  97.7647 159.8901 0007529 172.0961 188.0376 14.90297274  2959
CZ-4C R/B               
1 59729U 24089B   24152.91722883  .00008222  00000+0  38952-3 0  9992
2 59729  97.7599 160.6500 0103427 329.4217  30.1009 15.14897413  3002
STARLINK-31472          
1 59730U 24090A   24152.91667824 -.01742682  00000+0 -30011-1 0  9993
2 59730  42.9995 266.6492 0001629 275.8957  27.3238 15.53481618  4113
STARLINK-31817          
1 59731U 24090B   24152.91667824 -.01741592  00000+0 -29993-1 0  9990
2 59731  42.9994 266.6438 0001803 272.8089  32.3373 15.53477175  4186
STARLINK-31841          
1 59732U 24090C   24152.91667824 -.01740502  00000+0 -29980-1 0  9997
2 59732  42.9995 266.6384 0001606 274.7985  32.2756 15.53471778  4171
STARLINK-31833          
1 59733U 24090D   24152.91667824 -.01740197  00000+0 -29980-1 0  9998
2 59733  42.9995 266.6341 0001476 275.4160  33.5848 15.53467662  4110
STARLINK-31849          
1 59734U 24090E   24152.91667824 -.01742539  00000+0 -30024-1 0  9992
2 59734  42.9994 266.6292 0001750 276.0761  34.8501 15.53466167  4180
STARLINK-31661          
1 59735U 24090F   24152.91667824 -.01742404  00000+0 -30026-1 0  9996
2 59735  42.9995 266.6247 0001735 276.4177  36.4356 15.53462138  4124
STARLINK-31707          
1 59736U 24090G   24152.91667824 -.01743237  00000+0 -30046-1 0  9994
2 59736  42.9994 266.6198 0001699 278.1559  36.6237 15.53458943  4186
STARLINK-31821          
1 59737U 24090H   24152.91667824 -.01740224  00000+0 -29995-1 0  9999
2 59737  42.9995 266.6138 0001694 277.8962  38.8117 15.53452445  4127
